{"type": "FeatureCollection", "features": [ {"type": "Feature", "properties": {"norad_id": 67021, "name": "STARLINK-36184", "group": "last-30-days", "lat": 14.801146431763579, "lon": 110.2564552868605, "alt_km": 310.2831364365438, "timestamp": "2025-12-22T08:58:19.049790+00:00", "meta": {"OBJECT_NAME": "STARLINK-36184", "OBJECT_ID": "2025-293U", "EPOCH": "2025-12-22T04:00:01.998720", "MEAN_MOTION": 15.88302775, "ECCENTRICITY": 0.0004416, "INCLINATION": 69.9925, "RA_OF_ASC_NODE": 296.3796, "ARG_OF_PERICENTER": 273.6434, "MEAN_ANOMALY": 146.7275, "EPHEMERIS_TYPE": 0, "CLASSIFICATION_TYPE": "U", "NORAD_CAT_ID": 67021, "ELEMENT_SET_NO": 999, "REV_AT_EPOCH": 174, "BSTAR": -0.0063083, "MEAN_MOTION_DOT": -0.01509168, "MEAN_MOTION_DDOT": 0}, "tle": {"line1": "1 67021U 25293U   25356.16668980 -.01509168  00000+0 -63083-2 0  9995", "line2": "2 67021  69.9925 296.3796 0004416 273.6434 146.7275 15.88302775  1744"}}, "geometry": {"type": "Point", "coordinates": [110.2564552868605, 14.801146431763579]}}, {"type": "Feature", "properties": {"norad_id": 67022, "name": "STARLINK-36209", "group": "last-30-days", "lat": 11.877136234774243, "lon": 111.38285763491045, "alt_km": 310.4313556658308, "timestamp": "2025-12-22T08:58:19.049800+00:00", "meta": {"OBJECT_NAME": "STARLINK-36209", "OBJECT_ID": "2025-293V", "EPOCH": "2025-12-22T04:00:01.998720", "MEAN_MOTION": 15.88287157, "ECCENTRICITY": 0.0004123, "INCLINATION": 69.9924, "RA_OF_ASC_NODE": 296.3761, "ARG_OF_PERICENTER": 270.1787, "MEAN_ANOMALY": 153.3271, "EPHEMERIS_TYPE": 0, "CLASSIFICATION_TYPE": "U", "NORAD_CAT_ID": 67022, "ELEMENT_SET_NO": 999, "REV_AT_EPOCH": 174, "BSTAR": -0.006397, "MEAN_MOTION_DOT": -0.01525998, "MEAN_MOTION_DDOT": 0}, "tle": {"line1": "1 67022U 25293V   25356.16668980 -.01525998  00000+0 -63970-2 0  9990", "line2": "2 67022  69.9924 296.3761 0004123 270.1787 153.3271 15.88287157  1740"}}, "geometry": {"type": "Point", "coordinates": [111.38285763491045, 11.877136234774243]}}, {"type": "Feature", "properties": {"norad_id": 67023, "name": "STARLINK-36191", "group": "last-30-days", "lat": 9.443609021415561, "lon": 112.29957557957461, "alt_km": 310.727177559902, "timestamp": "2025-12-22T08:58:19.049828+00:00", "meta": {"OBJECT_NAME": "STARLINK-36191", "OBJECT_ID": "2025-293W", "EPOCH": "2025-12-22T04:00:01.998720", "MEAN_MOTION": 15.88274411, "ECCENTRICITY": 0.0004227, "INCLINATION": 69.9924, "RA_OF_ASC_NODE": 296.3723, "ARG_OF_PERICENTER": 269.9917, "MEAN_ANOMALY": 156.1216, "EPHEMERIS_TYPE": 0, "CLASSIFICATION_TYPE": "U", "NORAD_CAT_ID": 67023, "ELEMENT_SET_NO": 999, "REV_AT_EPOCH": 163, "BSTAR": -0.0064438, "MEAN_MOTION_DOT": -0.01534863, "MEAN_MOTION_DDOT": 0}, "tle": {"line1": "1 67023U 25293W   25356.16668980 -.01534863  00000+0 -64438-2 0  9992", "line2": "2 67023  69.9924 296.3723 0004227 269.9917 156.1216 15.88274411  1632"}}, "geometry": {"type": "Point", "coordinates": [112.29957557957461, 9.443609021415561]}}, {"type": "Feature", "properties": {"norad_id": 67024, "name": "STARLINK-36192", "group": "last-30-days", "lat": 6.633106697662067, "lon": 113.34391752357725, "alt_km": 310.26098061010725, "timestamp": "2025-12-22T08:58:19.049840+00:00", "meta": {"OBJECT_NAME": "STARLINK-36192", "OBJECT_ID": "2025-293X", "EPOCH": "2025-12-21T14:00:01.999872", "MEAN_MOTION": 15.90313058, "ECCENTRICITY": 0.00042776, "INCLINATION": 69.9924, "RA_OF_ASC_NODE": 298.0577, "ARG_OF_PERICENTER": 262.9237, "MEAN_ANOMALY": 69.5662, "EPHEMERIS_TYPE": 0, "CLASSIFICATION_TYPE": "U", "NORAD_CAT_ID": 67024, "ELEMENT_SET_NO": 999, "REV_AT_EPOCH": 164, "BSTAR": -0.0057924609, "MEAN_MOTION_DOT": -0.01754495, "MEAN_MOTION_DDOT": 0.00083981989}, "tle": {"line1": "1 67024U 25293X   25355.58335648 -.01754495  83982-3 -57925-2 0  9992", "line2": "2 67024  69.9924 298.0577 0004277 262.9237  69.5662 15.90313058  1649"}}, "geometry": {"type": "Point", "coordinates": [113.34391752357725, 6.633106697662067]}}, {"type": "Feature", "properties": {"norad_id": 67025, "name": "STARLINK-36178", "group": "last-30-days", "lat": 4.453772342076043, "lon": 114.14192116891677, "alt_km": 311.4062010140997, "timestamp": "2025-12-22T08:58:19.049850+00:00", "meta": {"OBJECT_NAME": "STARLINK-36178", "OBJECT_ID": "2025-293Y", "EPOCH": "2025-12-22T04:00:01.998720", "MEAN_MOTION": 15.88208796, "ECCENTRICITY": 0.000422, "INCLINATION": 69.9925, "RA_OF_ASC_NODE": 296.3662, "ARG_OF_PERICENTER": 271.3591, "MEAN_ANOMALY": 160.1122, "EPHEMERIS_TYPE": 0, "CLASSIFICATION_TYPE": "U", "NORAD_CAT_ID": 67025, "ELEMENT_SET_NO": 999, "REV_AT_EPOCH": 174, "BSTAR": -0.0063431, "MEAN_MOTION_DOT": -0.0150992, "MEAN_MOTION_DDOT": 0}, "tle": {"line1": "1 67025U 25293Y   25356.16668980 -.01509920  00000+0 -63431-2 0  9992", "line2": "2 67025  69.9925 296.3662 0004220 271.3591 160.1122 15.88208796  1741"}}, "geometry": {"type": "Point", "coordinates": [114.14192116891677, 4.453772342076043]}}, {"type": "Feature", "properties": {"norad_id": 67026, "name": "STARLINK-36176", "group": "last-30-days", "lat": -0.4849036353525815, "lon": 115.93873498988792, "alt_km": 311.58877907301667, "timestamp": "2025-12-22T08:58:19.049863+00:00", "meta": {"OBJECT_NAME": "STARLINK-36176", "OBJECT_ID": "2025-293Z", "EPOCH": "2025-12-22T04:00:01.998720", "MEAN_MOTION": 15.88182228, "ECCENTRICITY": 0.0003983, "INCLINATION": 69.9922, "RA_OF_ASC_NODE": 296.3599, "ARG_OF_PERICENTER": 264.3149, "MEAN_ANOMALY": 172.4326, "EPHEMERIS_TYPE": 0, "CLASSIFICATION_TYPE": "U", "NORAD_CAT_ID": 67026, "ELEMENT_SET_NO": 999, "REV_AT_EPOCH": 174, "BSTAR": -0.0064446, "MEAN_MOTION_DOT": -0.01528624, "MEAN_MOTION_DDOT": 0}, "tle": {"line1": "1 67026U 25293Z   25356.16668980 -.01528624  00000+0 -64446-2 0  9992", "line2": "2 67026  69.9922 296.3599 0003983 264.3149 172.4326 15.88182228  1747"}}, "geometry": {"type": "Point", "coordinates": [115.93873498988792, -0.4849036353525815]}}, {"type": "Feature", "properties": {"norad_id": 67027, "name": "STARLINK-36171", "group": "last-30-days", "lat": 1.6395017799768394, "lon": 115.1673199803389, "alt_km": 311.72873974493905, "timestamp": "2025-12-22T08:58:19.049873+00:00", "meta": {"OBJECT_NAME": "STARLINK-36171", "OBJECT_ID": "2025-293AA", "EPOCH": "2025-12-22T04:00:01.998720", "MEAN_MOTION": 15.88185207, "ECCENTRICITY": 0.0004272, "INCLINATION": 69.992, "RA_OF_ASC_NODE": 296.3628, "ARG_OF_PERICENTER": 271.3442, "MEAN_ANOMALY": 163.1423, "EPHEMERIS_TYPE": 0, "CLASSIFICATION_TYPE": "U", "NORAD_CAT_ID": 67027, "ELEMENT_SET_NO": 999, "REV_AT_EPOCH": 174, "BSTAR": -0.0063984, "MEAN_MOTION_DOT": -0.01519754, "MEAN_MOTION_DDOT": 0}, "tle": {"line1": "1 67027U 25293AA  25356.16668980 -.01519754  00000+0 -63984-2 0  9993", "line2": "2 67027  69.9920 296.3628 0004272 271.3442 163.1423 15.88185207  1740"}}, "geometry": {"type": "Point", "coordinates": [115.1673199803389, 1.6395017799768394]}}, {"type": "Feature", "properties": {"norad_id": 67028, "name": "STARLINK-36132", "group": "last-30-days", "lat": -5.458066171284782, "lon": 117.7513698379926, "alt_km": 312.4984019570047, "timestamp": "2025-12-22T08:58:19.049884+00:00", "meta": {"OBJECT_NAME": "STARLINK-36132", "OBJECT_ID": "2025-293AB", "EPOCH": "2025-12-22T04:00:01.998720", "MEAN_MOTION": 15.88142744, "ECCENTRICITY": 0.0004272, "INCLINATION": 69.9925, "RA_OF_ASC_NODE": 296.3539, "ARG_OF_PERICENTER": 273.4922, "MEAN_ANOMALY": 168.5815, "EPHEMERIS_TYPE": 0, "CLASSIFICATION_TYPE": "U", "NORAD_CAT_ID": 67028, "ELEMENT_SET_NO": 999, "REV_AT_EPOCH": 174, "BSTAR": -0.0064432, "MEAN_MOTION_DOT": -0.01526097, "MEAN_MOTION_DDOT": 0}, "tle": {"line1": "1 67028U 25293AB  25356.16668980 -.01526097  00000+0 -64432-2 0  9991", "line2": "2 67028  69.9925 296.3539 0004272 273.4922 168.5815 15.88142744  1746"}}, "geometry": {"type": "Point", "coordinates": [117.7513698379926, -5.458066171284782]}}, {"type": "Feature", "properties": {"norad_id": 67029, "name": "STARLINK-36190", "group": "last-30-days", "lat": -2.716721404991149, "lon": 116.75048121050288, "alt_km": 312.2315254340674, "timestamp": "2025-12-22T08:58:19.049896+00:00", "meta": {"OBJECT_NAME": "STARLINK-36190", "OBJECT_ID": "2025-293AC", "EPOCH": "2025-12-22T04:00:01.998720", "MEAN_MOTION": 15.88175568, "ECCENTRICITY": 0.0004328, "INCLINATION": 69.9925, "RA_OF_ASC_NODE": 296.3576, "ARG_OF_PERICENTER": 273.6941, "MEAN_ANOMALY": 165.4384, "EPHEMERIS_TYPE": 0, "CLASSIFICATION_TYPE": "U", "NORAD_CAT_ID": 67029, "ELEMENT_SET_NO": 999, "REV_AT_EPOCH": 174, "BSTAR": -0.0064598, "MEAN_MOTION_DOT": -0.01531714, "MEAN_MOTION_DDOT": 0}, "tle": {"line1": "1 67029U 25293AC  25356.16668980 -.01531714  00000+0 -64598-2 0  9997", "line2": "2 67029  69.9925 296.3576 0004328 273.6941 165.4384 15.88175568  1740"}}, "geometry": {"type": "Point", "coordinates": [116.75048121050288, -2.716721404991149]}}, {"type": "Feature", "properties": {"norad_id": 67030, "name": "STARLINK-36138", "group": "last-30-days", "lat": 33.768111119078505, "lon": -102.64663213926264, "alt_km": 316.9197737083414, "timestamp": "2025-12-22T08:58:19.049907+00:00", "meta": {"OBJECT_NAME": "STARLINK-36138", "OBJECT_ID": "2025-294A", "EPOCH": "2025-12-22T04:00:01.998720", "MEAN_MOTION": 15.84090777, "ECCENTRICITY": 0.0001781, "INCLINATION": 43.0001, "RA_OF_ASC_NODE": 124.479, "ARG_OF_PERICENTER": 268.7241, "MEAN_ANOMALY": 114.217, "EPHEMERIS_TYPE": 0, "CLASSIFICATION_TYPE": "U", "NORAD_CAT_ID": 67030, "ELEMENT_SET_NO": 999, "REV_AT_EPOCH": 163, "BSTAR": -0.0092169, "MEAN_MOTION_DOT": -0.01875711, "MEAN_MOTION_DDOT": 0}, "tle": {"line1": "1 67030U 25294A   25356.16668980 -.01875711  00000+0 -92169-2 0  9993", "line2": "2 67030  43.0001 124.4790 0001781 268.7241 114.2170 15.84090777  1634"}}, "geometry": {"type": "Point", "coordinates": [-102.64663213926264, 33.768111119078505]}}]}